{
  "type": "FeatureCollection",
  "features": [
    {
      "type": "Feature",
      "properties": {
        "norad_id": 67082,
        "name": "STARLINK-36035",
        "group": "last-30-days",
        "lat": 13.628130097515607,
        "lon": -133.67574115160065,
        "alt_km": 306.7651803513045,
        "timestamp": "2025-12-22T20:43:44.568947+00:00",
        "meta_object_name": "STARLINK-36035",
        "meta_object_id": "2025-298H",
        "meta_epoch": "2025-12-22T14:00:01.999872",
        "meta_mean_motion": 15.88933058,
        "meta_eccentricity": 0.00046157,
        "meta_inclination": 69.9974,
        "meta_ra_of_asc_node": 222.0676,
        "meta_arg_of_pericenter": 264.2356,
        "meta_mean_anomaly": 307.1436,
        "meta_ephemeris_type": 0,
        "meta_classification_type": "U",
        "meta_norad_cat_id": 67082,
        "meta_element_set_no": 999,
        "meta_rev_at_epoch": 256,
        "meta_bstar": 0.00041165584,
        "meta_mean_motion_dot": 0.00118523,
        "meta_mean_motion_ddot": 0,
        "tle_line1": "1 67082U 25298H   25356.58335648  .00118523  00000+0  41166-3 0  9992",
        "tle_line2": "2 67082  69.9974 222.0676 0004615 264.2356 307.1436 15.88933058  2565"
      },
      "geometry": {
        "type": "Point",
        "coordinates": [
          -133.67574115160065,
          13.628130097515607
        ]
      }
    },
    {
      "type": "Feature",
      "properties": {
        "norad_id": 67083,
        "name": "STARLINK-36170",
        "group": "last-30-days",
        "lat": 15.618625300395763,
        "lon": -132.9003294659749,
        "alt_km": 306.4611369427612,
        "timestamp": "2025-12-22T20:43:44.568962+00:00",
        "meta_object_name": "STARLINK-36170",
        "meta_object_id": "2025-298J",
        "meta_epoch": "2025-12-22T14:00:01.999872",
        "meta_mean_motion": 15.88981127,
        "meta_eccentricity": 0.00046542,
        "meta_inclination": 69.9972,
        "meta_ra_of_asc_node": 222.0649,
        "meta_arg_of_pericenter": 264.1941,
        "meta_mean_anomaly": 309.267,
        "meta_ephemeris_type": 0,
        "meta_classification_type": "U",
        "meta_norad_cat_id": 67083,
        "meta_element_set_no": 999,
        "meta_rev_at_epoch": 256,
        "meta_bstar": 0.00036703571,
        "meta_mean_motion_dot": 0.00103575,
        "meta_mean_motion_ddot": 7.689642e-06,
        "tle_line1": "1 67083U 25298J   25356.58335648  .00103575  76896-5  36704-3 0  9998",
        "tle_line2": "2 67083  69.9972 222.0649 0004654 264.1941 309.2670 15.88981127  2569"
      },
      "geometry": {
        "type": "Point",
        "coordinates": [
          -132.9003294659749,
          15.618625300395763
        ]
      }
    },
    {
      "type": "Feature",
      "properties": {
        "norad_id": 67084,
        "name": "STARLINK-36166",
        "group": "last-30-days",
        "lat": 17.491185708617337,
        "lon": -132.15599835986225,
        "alt_km": 306.0664092342022,
        "timestamp": "2025-12-22T20:43:44.568974+00:00",
        "meta_object_name": "STARLINK-36166",
        "meta_object_id": "2025-298K",
        "meta_epoch": "2025-12-22T14:00:01.999872",
        "meta_mean_motion": 15.89040648,
        "meta_eccentricity": 0.00046471,
        "meta_inclination": 69.9973,
        "meta_ra_of_asc_node": 222.0624,
        "meta_arg_of_pericenter": 265.6669,
        "meta_mean_anomaly": 309.7449,
        "meta_ephemeris_type": 0,
        "meta_classification_type": "U",
        "meta_norad_cat_id": 67084,
        "meta_element_set_no": 999,
        "meta_rev_at_epoch": 250,
        "meta_bstar": 0.00027515112,
        "meta_mean_motion_dot": 0.00077572,
        "meta_mean_motion_ddot": 6.034339e-06,
        "tle_line1": "1 67084U 25298K   25356.58335648  .00077572  60343-5  27515-3 0  9996",
        "tle_line2": "2 67084  69.9973 222.0624 0004647 265.6669 309.7449 15.89040648  2507"
      },
      "geometry": {
        "type": "Point",
        "coordinates": [
          -132.15599835986225,
          17.491185708617337
        ]
      }
    },
    {
      "type": "Feature",
      "properties": {
        "norad_id": 67085,
        "name": "STARLINK-35794",
        "group": "last-30-days",
        "lat": 19.374001226566577,
        "lon": -131.3904277683405,
        "alt_km": 305.8766671742733,
        "timestamp": "2025-12-22T20:43:44.568987+00:00",
        "meta_object_name": "STARLINK-35794",
        "meta_object_id": "2025-298L",
        "meta_epoch": "2025-12-22T14:00:01.999872",
        "meta_mean_motion": 15.89166335,
        "meta_eccentricity": 0.00047708,
        "meta_inclination": 69.9973,
        "meta_ra_of_asc_node": 222.0602,
        "meta_arg_of_pericenter": 263.955,
        "meta_mean_anomaly": 313.3912,
        "meta_ephemeris_type": 0,
        "meta_classification_type": "U",
        "meta_norad_cat_id": 67085,
        "meta_element_set_no": 999,
        "meta_rev_at_epoch": 256,
        "meta_bstar": -0.0002662539,
        "meta_mean_motion_dot": -0.00077977,
        "meta_mean_motion_ddot": 5.87218e-06,
        "tle_line1": "1 67085U 25298L   25356.58335648 -.00077977  58722-5 -26625-3 0  9997",
        "tle_line2": "2 67085  69.9973 222.0602 0004770 263.9550 313.3912 15.89166335  2565"
      },
      "geometry": {
        "type": "Point",
        "coordinates": [
          -131.3904277683405,
          19.374001226566577
        ]
      }
    },
    {
      "type": "Feature",
      "properties": {
        "norad_id": 67086,
        "name": "STARLINK-35841",
        "group": "last-30-days",
        "lat": 21.422357615126565,
        "lon": -130.53558477860153,
        "alt_km": 305.5140961006773,
        "timestamp": "2025-12-22T20:43:44.568997+00:00",
        "meta_object_name": "STARLINK-35841",
        "meta_object_id": "2025-298M",
        "meta_epoch": "2025-12-22T14:00:01.999872",
        "meta_mean_motion": 15.89172246,
        "meta_eccentricity": 0.00046264,
        "meta_inclination": 69.9972,
        "meta_ra_of_asc_node": 222.0576,
        "meta_arg_of_pericenter": 263.2655,
        "meta_mean_anomaly": 316.2555,
        "meta_ephemeris_type": 0,
        "meta_classification_type": "U",
        "meta_norad_cat_id": 67086,
        "meta_element_set_no": 999,
        "meta_rev_at_epoch": 256,
        "meta_bstar": -1.6606559e-05,
        "meta_mean_motion_dot": -6.022e-05,
        "meta_mean_motion_ddot": 3.909719e-06,
        "tle_line1": "1 67086U 25298M   25356.58335648 -.00006022  39097-5 -16607-4 0  9995",
        "tle_line2": "2 67086  69.9972 222.0576 0004626 263.2655 316.2555 15.89172246  2567"
      },
      "geometry": {
        "type": "Point",
        "coordinates": [
          -130.53558477860153,
          21.422357615126565
        ]
      }
    },
    {
      "type": "Feature",
      "properties": {
        "norad_id": 67087,
        "name": "STARLINK-35842",
        "group": "last-30-days",
        "lat": 23.062569395951794,
        "lon": -129.8324055372254,
        "alt_km": 304.88525047268377,
        "timestamp": "2025-12-22T20:43:44.569007+00:00",
        "meta_object_name": "STARLINK-35842",
        "meta_object_id": "2025-298N",
        "meta_epoch": "2025-12-22T14:00:01.999872",
        "meta_mean_motion": 15.89249035,
        "meta_eccentricity": 0.00046244,
        "meta_inclination": 69.9971,
        "meta_ra_of_asc_node": 222.0554,
        "meta_arg_of_pericenter": 269.9829,
        "meta_mean_anomaly": 311.2383,
        "meta_ephemeris_type": 0,
        "meta_classification_type": "U",
        "meta_norad_cat_id": 67087,
        "meta_element_set_no": 999,
        "meta_rev_at_epoch": 256,
        "meta_bstar": -0.00021420276,
        "meta_mean_motion_dot": -0.00063227,
        "meta_mean_motion_ddot": 5.192902e-06,
        "tle_line1": "1 67087U 25298N   25356.58335648 -.00063227  51929-5 -21420-3 0  9992",
        "tle_line2": "2 67087  69.9971 222.0554 0004624 269.9829 311.2383 15.89249035  2562"
      },
      "geometry": {
        "type": "Point",
        "coordinates": [
          -129.8324055372254,
          23.062569395951794
        ]
      }
    },
    {
      "type": "Feature",
      "properties": {
        "norad_id": 67088,
        "name": "STARLINK-35882",
        "group": "last-30-days",
        "lat": 25.06554950587663,
        "lon": -128.94770136312778,
        "alt_km": 304.55320632754683,
        "timestamp": "2025-12-22T20:43:44.569018+00:00",
        "meta_object_name": "STARLINK-35882",
        "meta_object_id": "2025-298P",
        "meta_epoch": "2025-12-22T14:00:01.999872",
        "meta_mean_motion": 15.89323352,
        "meta_eccentricity": 0.00037224,
        "meta_inclination": 69.9973,
        "meta_ra_of_asc_node": 222.0531,
        "meta_arg_of_pericenter": 262.0652,
        "meta_mean_anomaly": 321.2672,
        "meta_ephemeris_type": 0,
        "meta_classification_type": "U",
        "meta_norad_cat_id": 67088,
        "meta_element_set_no": 999,
        "meta_rev_at_epoch": 256,
        "meta_bstar": -0.00039356886,
        "meta_mean_motion_dot": -0.0011552,
        "meta_mean_motion_ddot": 8.251385e-06,
        "tle_line1": "1 67088U 25298P   25356.58335648 -.00115520  82514-5 -39357-3 0  9999",
        "tle_line2": "2 67088  69.9973 222.0531 0003722 262.0652 321.2672 15.89323352  2563"
      },
      "geometry": {
        "type": "Point",
        "coordinates": [
          -128.94770136312778,
          25.06554950587663
        ]
      }
    }
  ]
}